[{"OBJECT_NAME":"STARLINK-3192","OBJECT_ID":"2021-115AV","EPOCH":"2026-03-09T12:20:21.146496","MEAN_MOTION":15.08834739,"ECCENTRICITY":0.00013578,"INCLINATION":53.2178,"RA_OF_ASC_NODE":139.9103,"ARG_OF_PERICENTER":89.0818,"MEAN_ANOMALY":271.033,"EPHEMERIS_TYPE":0,"CLASSIFICATION_TYPE":"U","NORAD_CAT_ID":49767,"ELEMENT_SET_NO":999,"REV_AT_EPOCH":23565,"BSTAR":2.9173052e-5,"MEAN_MOTION_DOT":1.76e-6,"MEAN_MOTION_DDOT":0},{"OBJECT_NAME":"SCOUT X-4 R\/B","OBJECT_ID":"1964-076C","EPOCH":"2026-03-09T21:31:37.688736","MEAN_MOTION":12.82292935,"ECCENTRICITY":0.10503796,"INCLINATION":81.3341,"RA_OF_ASC_NODE":228.4824,"ARG_OF_PERICENTER":226.0934,"MEAN_ANOMALY":124.8691,"EPHEMERIS_TYPE":0,"CLASSIFICATION_TYPE":"U","NORAD_CAT_ID":933,"ELEMENT_SET_NO":999,"REV_AT_EPOCH":82385,"BSTAR":0.00066284647,"MEAN_MOTION_DOT":1.978e-5,"MEAN_MOTION_DDOT":0}]
